format  = 'OEF2.0'       ! file format
rectype = 'ML'           ! record type (1L/ML)
refsys  = ECLM J2000     ! default reference system
END_OF_HEADER
2009BD
! Keplerian elements: a, e, i, long. node, arg. peric., mean anomaly
 KEP   1.0617247805226826E+00   0.051537228123124    1.266349635713  253.274880478698  316.800386773210  118.202272507656
 MJD     59400.000000000 TDT
 MAG  28.211  0.150
! Non-gravitational parameters: model used, number of model parameters, dimension, list of solve for parameters to be currently determined
 LSP   1  2    8    1  2
! Vector of dynamical parameters
! Area-to-mass ratio [m^2/t], Yarkovsky parameter [1E-10 au/day^2]
 NGR   2.37035178629626E-01 -1.15784215281726E-02
! PERIHELION   1.0070064283049109E+00
! APHELION   1.1164431327404543E+00
! ANODE   6.2600326949319839E-03
! DNODE   1.1372972056508317E-01
! MOID   4.3964231475132533E-03
! PERIOD   399.5916069065273
! PHA F
! VINFTY     0.7154750514529
! U_PAR 1.9
! ORB_TYPE Apollo
! RMS    7.01581E-08   5.31748E-08   1.29894E-06   5.09881E-06   3.74353E-05   4.09042E-04   3.57250E-02   8.21041E-04
 COV   4.922152548986896E-15  3.484428884555513E-15 -7.634404945886848E-14
 COV   4.148712009383356E-14  2.019040346257700E-12 -2.764463190818844E-11
 COV   1.246867581529311E-09  3.843533198353016E-11  2.827561462755755E-15
 COV  -5.405774536524888E-14  1.462216108485957E-14  1.290437163529423E-12
 COV  -2.152041694491314E-11  1.355687457023633E-09  2.972665493188818E-11
 COV   1.687235161726139E-12 -3.605754857704478E-12 -3.358876276638499E-11
 COV   4.085564999083462E-10 -8.713427953220452E-09 -3.232365291370131E-10
 COV   2.599781583430189E-11  1.383593807953824E-13 -2.622479867379940E-12
 COV  -5.914677303229551E-08 -7.212764867149595E-10  1.401399763171649E-09
 COV  -1.091986245865296E-08  7.512274544947883E-08  3.466647462202165E-09
 COV   1.673157279294236E-07 -9.921020929085676E-06 -2.337541895298061E-07
 COV   1.276275593949321E-03  2.340783169302650E-05  6.741076504304530E-07
 COR   1.000000000000000E+00  9.340025104439406E-01 -8.377411503201720E-01
 COR   1.159757854182112E-01  7.687523261713063E-01 -9.633073929925071E-01
 COR   4.974742049257239E-01  6.672498332897613E-01  1.000000000000000E+00
 COR  -7.826436979118973E-01  5.393083017084759E-02  6.482608808854323E-01
 COR  -9.894099434912152E-01  7.136435069888891E-01  6.808875401123898E-01
 COR   1.000000000000000E+00 -5.444273784075008E-01 -6.907568150681833E-01
 COR   7.689461590507449E-01 -1.877712094825448E-01 -3.030874808446405E-01
 COR   9.999999999999998E-01  7.248683848196402E-04 -1.257405477103848E-03
 COR  -3.247060581244433E-01 -1.722934292829369E-01  9.999999999999999E-01
 COR  -7.131284531778465E-01  5.617178168810760E-02  1.127882948103178E-01
 COR   1.000000000000000E+00 -6.789155407408433E-01 -6.960274886266391E-01
 COR   1.000000000000000E+00  7.980393862837573E-01  9.999999999999998E-01
